NORAD_CAT_ID,OBJECT_NAME,OBJECT_TYPE,EPOCH,MEAN_MOTION,ECCENTRICITY,INCLINATION,RA_OF_ASC_NODE,ARG_OF_PERICENTER,MEAN_ANOMALY,BSTAR,MEAN_MOTION_DOT,MEAN_MOTION_DDOT,TLE_LINE0,TLE_LINE1,TLE_LINE2,SEMIMAJOR_AXIS,PERIOD,APOGEE,PERIGEE,DECAYED
55671.0,STARLINK-5460,PAYLOAD,2023-06-11 04:50:48,15.69917895,0.0003243,69.9981,191.0028,273.727,86.3555,4.089e-05,4.705e-05,0.0,0 STARLINK-5460,1 55671U 23021AV  23162.20195346  .00004705  00000-0  40890-4 0  9997,2 55671  69.9981 191.0028 0003243 273.7270  86.3555 15.69917895 18651,6737.269,91.725,361.319,356.949,0.0
55671.0,STARLINK-5460,PAYLOAD,2023-06-11 10:57:50,15.69904246,0.0002702,69.9987,190.2854,273.6455,86.4432,2.1316e-05,2.349e-05,0.0,0 STARLINK-5460,1 55671U 23021AV  23162.45683541  .00002349  00000-0  21316-4 0  9997,2 55671  69.9987 190.2854 0002702 273.6455  86.4432 15.69904246 18693,6737.308,91.725,360.993,357.353,0.0
55671.0,STARLINK-5460,PAYLOAD,2023-06-12 08:22:21,15.69931289,0.0003481,69.9977,187.7745,269.4447,90.635,-7.7254e-06,-1.142e-05,0.0,0 STARLINK-5460,1 55671U 23021AV  23163.34885434 -.00001142  00000-0 -77254-5 0  9996,2 55671  69.9977 187.7745 0003481 269.4447  90.6350 15.69931289 18526,6737.231,91.724,361.441,356.75,0.0
55671.0,STARLINK-5460,PAYLOAD,2023-06-12 11:25:51,15.69931068,0.0003813,69.9975,187.4165,275.1519,84.9241,-8.4251e-06,-1.226e-05,0.0,0 STARLINK-5460,1 55671U 23021AV  23163.47628768 -.00001226  00000-0 -84251-5 0  9993,2 55671  69.9975 187.4165 0003813 275.1519  84.9241 15.69931068 18856,6737.231,91.724,361.665,356.527,0.0
55671.0,STARLINK-5460,PAYLOAD,2023-06-12 19:04:37,15.69913582,0.0003402,69.9969,186.5228,269.6594,90.4212,-2.7318e-06,-5.41e-06,0.0,0 STARLINK-5460,1 55671U 23021AV  23163.79488143 -.00000541  00000-0 -27318-5 0  9999,2 55671  69.9969 186.5228 0003402 269.6594  90.4212 15.69913582 18596,6737.281,91.725,361.438,356.854,0.0
55671.0,STARLINK-5460,PAYLOAD,2023-06-13 04:15:07,15.6993458,0.0003337,69.9973,185.4476,271.7161,88.3652,3.9992e-06,2.68e-06,0.0,0 STARLINK-5460,1 55671U 23021AV  23164.17716898  .00000268  00000-0  39992-5 0  9998,2 55671  69.9973 185.4476 0003337 271.7161  88.3652 15.69934580 18657,6737.221,91.724,361.334,356.838,0.0
55671.0,STARLINK-5460,PAYLOAD,2023-06-13 11:53:53,15.69926874,0.0003599,69.9974,184.5522,274.4149,85.6635,-3.8146e-06,-6.72e-06,0.0,0 STARLINK-5460,1 55671U 23021AV  23164.49575692 -.00000672  00000-0 -38146-5 0  9999,2 55671  69.9974 184.5522 0003599 274.4149  85.6635 15.69926874 18700,6737.243,91.724,361.533,356.683,0.0
55671.0,STARLINK-5460,PAYLOAD,2023-06-13 13:25:38,15.69931903,0.0003164,69.9973,184.3731,265.0174,95.0661,-1.9346e-06,-4.45e-06,0.0,0 STARLINK-5460,1 55671U 23021AV  23164.55947026 -.00000445  00000-0 -19346-5 0  9999,2 55671  69.9973 184.3731 0003164 265.0174  95.0661 15.69931903 19020,6737.229,91.724,361.225,356.962,0.0
55671.0,STARLINK-5460,PAYLOAD,2023-06-13 21:04:24,15.69927834,0.0003532,69.9974,183.4776,275.3061,84.7732,5.8239e-06,4.88e-06,0.0,0 STARLINK-5460,1 55671U 23021AV  23164.87805570  .00000488  00000-0  58239-5 0  9990,2 55671  69.9974 183.4776 0003532 275.3061  84.7732 15.69927834 19075,6737.24,91.724,361.485,356.726,0.0
55671.0,STARLINK-5460,PAYLOAD,2023-06-14 01:39:39,15.69915272,0.0003459,69.9974,182.9397,270.4878,89.5922,1.2145e-05,1.247e-05,0.0,0 STARLINK-5460,1 55671U 23021AV  23165.06921130  .00001247  00000-0  12145-4 0  9992,2 55671  69.9974 182.9397 0003459 270.4878  89.5922 15.69915272 18793,6737.276,91.725,361.472,356.811,0.0
55671.0,STARLINK-5460,PAYLOAD,2023-06-14 10:50:11,15.69903702,0.0003476,69.9973,181.8653,272.7508,87.329,-1.0111e-05,-1.427e-05,0.0,0 STARLINK-5460,1 55671U 23021AV  23165.45152380 -.00001427  00000-0 -10111-4 0  9991,2 55671  69.9973 181.8653 0003476 272.7508  87.3290 15.69903702 18855,6737.31,91.725,361.516,356.833,0.0
55671.0,STARLINK-5460,PAYLOAD,2023-06-14 12:21:56,15.69907656,0.0003516,69.9973,181.6861,272.4867,87.5926,-1.2686e-05,-1.737e-05,0.0,0 STARLINK-5460,1 55671U 23021AV  23165.51523909 -.00001737  00000-0 -12686-4 0  9990,2 55671  69.9973 181.6861 0003516 272.4867  87.5926 15.69907656 19170,6737.298,91.725,361.532,356.794,0.0
55671.0,STARLINK-5460,PAYLOAD,2023-06-14 20:00:41,15.69916718,0.0003559,69.9974,180.7903,273.0578,87.021,1.2124e-05,1.245e-05,0.0,0 STARLINK-5460,1 55671U 23021AV  23165.83381528  .00001245  00000-0  12124-4 0  9993,2 55671  69.9974 180.7903 0003559 273.0578  87.0210 15.69916718 19227,6737.272,91.725,361.535,356.739,0.0
55671.0,STARLINK-5460,PAYLOAD,2023-06-15 03:39:26,15.6993752,0.000356,69.9989,179.8947,274.0415,86.0374,5.0741e-05,5.896e-05,0.0,0 STARLINK-5460,1 55671U 23021AV  23166.15239058  .00005896  00000-0  50741-4 0  9992,2 55671  69.9989 179.8947 0003560 274.0415  86.0374 15.69937520 18967,6737.213,91.723,361.476,356.679,0.0
55671.0,STARLINK-5460,PAYLOAD,2023-06-15 09:46:27,15.69923054,0.0003438,69.9992,179.1783,277.2832,82.7973,2.9901e-05,3.384e-05,0.0,0 STARLINK-5460,1 55671U 23021AV  23166.40726176  .00003384  00000-0  29901-4 0  9996,2 55671  69.9992 179.1783 0003438 277.2832  82.7973 15.69923054 19005,6737.254,91.724,361.435,356.803,0.0
55671.0,STARLINK-5460,PAYLOAD,2023-06-15 12:49:57,15.6993014,0.0003427,69.9992,178.8199,276.9241,83.1565,8.8579e-05,0.00010454,0.0,0 STARLINK-5460,1 55671U 23021AV  23166.53469511  .00010454  00000-0  88579-4 0  9999,2 55671  69.9992 178.8199 0003427 276.9241  83.1565 15.69930140 19332,6737.234,91.724,361.408,356.79,0.0
55671.0,STARLINK-5460,PAYLOAD,2023-06-15 14:21:42,15.69932843,0.000342,69.9991,178.6407,276.9114,83.1693,0.00011112,0.00013174,0.0,0 STARLINK-5460,1 55671U 23021AV  23166.59841165  .00013174  00000-0  11112-3 0  9994,2 55671  69.9991 178.6407 0003420 276.9114  83.1693 15.69932843 19348,6737.226,91.724,361.395,356.787,0.0
55671.0,STARLINK-5460,PAYLOAD,2023-06-16 02:35:43,15.69950164,0.0003473,69.9991,177.2076,277.8714,82.2087,0.00025929,0.00031115,0.0,0 STARLINK-5460,1 55671U 23021AV  23167.10814239  .00031115  00000-0  25929-3 0  9990,2 55671  69.9991 177.2076 0003473 277.8714  82.2087 15.69950164 19117,6737.177,91.723,361.381,356.702,0.0
55671.0,STARLINK-5460,PAYLOAD,2023-06-16 10:14:28,15.69942008,0.0003458,69.9991,176.3119,278.1647,81.9157,9.9687e-05,0.000118,0.0,0 STARLINK-5460,1 55671U 23021AV  23167.42672307  .00011800  00000-0  99687-4 0  9995,2 55671  69.9991 176.3119 0003458 278.1647  81.9157 15.69942008 19164,6737.2,91.723,361.395,356.735,0.0
55671.0,STARLINK-5460,PAYLOAD,2023-06-16 11:46:13,15.69946113,0.0003463,69.999,176.1328,277.953,82.1273,0.00012188,0.00014481,0.0,0 STARLINK-5460,1 55671U 23021AV  23167.49043882  .00014481  00000-0  12188-3 0  9990,2 55671  69.9990 176.1328 0003463 277.9530  82.1273 15.69946113 19485,6737.188,91.723,361.386,356.72,0.0
55671.0,STARLINK-5460,PAYLOAD,2023-06-16 14:49:44,15.69926225,0.0003316,69.999,175.7746,279.7539,80.3282,-2.26e-05,-2.929e-05,0.0,0 STARLINK-5460,1 55671U 23021AV  23167.61787482 -.00002929  00000-0 -22600-4 0  9992,2 55671  69.9990 175.7746 0003316 279.7539  80.3282 15.69926225 19190,6737.245,91.724,361.344,356.876,0.0
55671.0,STARLINK-5460,PAYLOAD,2023-06-16 19:24:59,15.69935362,0.0003443,69.9991,175.2371,274.9981,85.0821,0.00010371,0.00012282,0.0,0 STARLINK-5460,1 55671U 23021AV  23167.80902373  .00012282  00000-0  10371-3 0  9993,2 55671  69.9991 175.2371 0003443 274.9981  85.0821 15.69935362 19530,6737.219,91.724,361.404,356.764,0.0
55671.0,STARLINK-5460,PAYLOAD,2023-06-17 12:14:16,15.69923375,0.0003453,69.999,173.2662,271.7305,88.3495,0.00019772,0.00023628,0.0,0 STARLINK-5460,1 55671U 23021AV  23168.50991597  .00023628  00000-0  19772-3 0  9997,2 55671  69.9990 173.2662 0003453 271.7305  88.3495 15.69923375 19642,6737.253,91.724,361.445,356.792,0.0
55671.0,STARLINK-5460,PAYLOAD,2023-06-17 18:21:16,15.69944186,0.000348,69.9991,172.5495,271.2462,88.8335,0.00024901,0.00029861,0.0,0 STARLINK-5460,1 55671U 23021AV  23168.76478000  .00029861  00000-0  24901-3 0  9999,2 55671  69.9991 172.5495 0003480 271.2462  88.8335 15.69944186 19379,6737.194,91.723,361.403,356.714,0.0
55671.0,STARLINK-5460,PAYLOAD,2023-06-17 21:24:47,15.69915706,0.0004245,69.999,172.1917,289.5319,70.5418,4.8729e-05,5.649e-05,0.0,0 STARLINK-5460,1 55671U 23021AV  23168.89221775  .00005649  00000-0  48729-4 0  9991,2 55671  69.9990 172.1917 0004245 289.5319  70.5418 15.69915706 19709,6737.275,91.725,362.0,356.28,0.0
55671.0,STARLINK-5460,PAYLOAD,2023-06-18 00:28:17,15.69923171,0.0003518,69.9991,171.8334,268.154,91.9253,2.2212e-05,2.459e-05,0.0,0 STARLINK-5460,1 55671U 23021AV  23169.01964906  .00002459  00000-0  22212-4 0  9991,2 55671  69.9991 171.8334 0003518 268.1540  91.9253 15.69923171 19417,6737.254,91.724,361.489,356.749,0.0
55671.0,STARLINK-5460,PAYLOAD,2023-06-18 03:31:48,15.69927907,0.0003565,69.9991,171.4748,269.4348,90.644,0.00011643,0.00013813,0.0,0 STARLINK-5460,1 55671U 23021AV  23169.14708343  .00013813  00000-0  11643-3 0  9997,2 55671  69.9991 171.4748 0003565 269.4348  90.6440 15.69927907 19745,6737.24,91.724,361.507,356.703,0.0
55671.0,STARLINK-5460,PAYLOAD,2023-06-18 17:17:33,15.69946907,0.0003372,69.9992,169.863,267.8857,92.1952,0.000244,0.00029256,0.0,0 STARLINK-5460,1 55671U 23021AV  23169.72053027  .00029256  00000-0  24400-3 0  9996,2 55671  69.9992 169.8630 0003372 267.8857  92.1952 15.69946907 19522,6737.186,91.723,361.323,356.779,0.0
55671.0,STARLINK-5460,PAYLOAD,2023-06-19 02:28:04,15.69941886,0.0003517,69.9993,168.788,265.4337,94.6457,0.00015276,0.00018209,0.0,0 STARLINK-5460,1 55671U 23021AV  23170.10282847  .00018209  00000-0  15276-3 0  9991,2 55671  69.9993 168.7880 0003517 265.4337  94.6457 15.69941886 19580,6737.2,91.723,361.435,356.696,0.0
55671.0,STARLINK-5460,PAYLOAD,2023-06-19 11:38:35,15.69946382,0.0003662,69.9993,167.7133,269.0535,91.0241,0.00020469,0.00024495,0.0,0 STARLINK-5460,1 55671U 23021AV  23170.48512889  .00024495  00000-0  20469-3 0  9998,2 55671  69.9993 167.7133 0003662 269.0535  91.0241 15.69946382 19950,6737.187,91.723,361.52,356.585,0.0
